[{"OBJECT_NAME":"BRO-14","OBJECT_ID":"2024-149CM","EPOCH":"2026-03-09T19:21:31.034016","MEAN_MOTION":14.95926897,"ECCENTRICITY":0.000793,"INCLINATION":97.6931,"RA_OF_ASC_NODE":146.3614,"ARG_OF_PERICENTER":74.9836,"MEAN_ANOMALY":285.2263,"EPHEMERIS_TYPE":0,"CLASSIFICATION_TYPE":"U","NORAD_CAT_ID":60551,"ELEMENT_SET_NO":999,"REV_AT_EPOCH":8513,"BSTAR":0.00014547278,"MEAN_MOTION_DOT":1.572e-5,"MEAN_MOTION_DDOT":0},{"OBJECT_NAME":"STARLINK-35794","OBJECT_ID":"2025-298L","EPOCH":"2026-03-09T22:40:21.040608","MEAN_MOTION":14.99140238,"ECCENTRICITY":0.000246,"INCLINATION":70.0018,"RA_OF_ASC_NODE":13.8954,"ARG_OF_PERICENTER":239.7803,"MEAN_ANOMALY":120.3113,"EPHEMERIS_TYPE":0,"CLASSIFICATION_TYPE":"U","NORAD_CAT_ID":67085,"ELEMENT_SET_NO":999,"REV_AT_EPOCH":1325,"BSTAR":0.00057556911,"MEAN_MOTION_DOT":6.926e-5,"MEAN_MOTION_DDOT":0}]
